MOLNIYA 2-9             
1 07276U 74026A   15119.73566156  .00006396  00000-0  80094-3 0  9995
2 07276  62.4972 323.6503 7167302 279.3187  12.6719  2.44321409185525
MOLNIYA 2-10            
1 07376U 74056A   15120.35726962 -.00001994  00000-0  00000+0 0  9997
2 07376  61.6128  72.8437 7472655 280.2468  10.6117  2.00549069298017
MOLNIYA 1-S             
1 07392U 74060A   15119.97779057  .00000000  00000-0  10000-3 0  9990
2 07392  10.4470 316.2391 0012291 150.5005 209.4721  1.00249231 93374
MOLNIYA 1-29            
1 07780U 75036A   15118.38768088 -.00000420  00000-0 -17106-2 0  9992
2 07780  61.7448 251.2470 7354533 261.4775  17.0961  2.00653993293349
MOLNIYA 2-13            
1 08015U 75063A   15120.25835986 -.00001362  00000-0 -38306-4 0  9998
2 08015  61.8030 256.5929 7391171 256.9273  18.6509  2.00716189291718
MOLNIYA 2-14            
1 08195U 75081A   15118.36558126  .00000877  00000-0  22700-2 0  9991
2 08195  61.4858 225.8461 7359821 262.7500  16.5891  2.00582441290436
MOLNIYA 3-3             
1 08425U 75105A   15118.88274790 -.00000473  00000-0 -84279-3 0  9997
2 08425  61.4461 251.3731 7410474 253.6277  19.9899  2.00647359289093
MOLNIYA 1-32            
1 08601U 76006A   15118.80371262  .00000405  00000-0 -18780-2 0  9995
2 08601  62.7057 322.1926 7372317 260.9012  17.0615  2.00073976286863
MOLNIYA 2-17            
1 09829U 77010A   15120.17210046  .00000691  00000-0  15237-1 0  9998
2 09829  62.8577 352.2286 7358824 246.6170  24.3284  2.00407685280023
MOLNIYA 1-36            
1 09880U 77021A   15119.00026008 -.00001646  00000-0  84192-5 0  9992
2 09880  62.2879 317.7609 7421989 256.3150  18.5137  2.00509264177161
MOLNIYA 3-7             
1 09941U 77032A   15115.60067462 -.00000797  00000-0 -12194-2 0  9990
2 09941  62.4130 327.2892 7412368 249.2807  22.1287  2.00506426278382
MOLNIYA 3-8             
1 10455U 77105A   15120.21508557 -.00001658  00000-0  00000+0 0  9997
2 10455  62.9000  27.5189 7391197 259.6824  17.4566  2.00765445274790
MOLNIYA 1-40            
1 10925U 78055A   15118.91531359  .00000941  00000-0  14498-2 0  9996
2 10925  62.5982  60.9201 7370121 263.2744  16.3176  2.00663798270417
MOLNIYA 1-42            
1 11007U 78080A   15120.03996093  .00011268 -26978-6  40156-3 0  9996
2 11007  62.3550  92.6361 7274528 256.1347  20.2329  2.32836719289099
MOLNIYA 3-10            
1 11057U 78095A   15120.22271849  .00000204  00000-0  11647-2 0  9994
2 11057  62.5093 173.1745 7050584 260.6324  20.3463  2.34209606292521
MOLNIYA 1-44            
1 11474U 79070A   15120.50059440  .00160963  00000-0  10458-2 0  9991
2 11474  62.0982 172.2818 2431717 237.3627  96.9613 10.70923409474543
MOLNIYA 3-13            
1 11896U 80063A   15118.14346423  .00000155  00000-0  00000+0 0  9995
2 11896  62.8146 155.2134 7126484 262.6351  18.7394  2.00599228254833
MOLNIYA 1-49            
1 12156U 81009A   15119.41520396  .00000064  00000-0  00000+0 0  9999
2 12156  64.5542 161.2651 6619968 256.0399 319.0759  2.05698128167913
MOLNIYA 1-52            
1 13012U 81123A   15120.47593823 -.00000921  00000-0  21929-1 0  9999
2 13012  64.4663 228.5529 6556367 264.8643 185.0575  2.00555494244399
MOLNIYA 1-53            
1 13070U 82015A   15120.47842840 -.00000365  00000-0 -79110-2 0  9999
2 13070  62.7053 243.8415 7166332 261.5689 104.6113  2.00604049242984
MOLNIYA 3-20            
1 13875U 83015A   15120.47852203 -.00000024  00000-0  10000-3 0  9992
2 13875  64.0848 306.9863 6965043 268.7234  17.5795  2.00547263171491
MOLNIYA 1-56            
1 13890U 83019A   15120.27960701  .00000167  00000-0  00000+0 0  9996
2 13890  63.9538 348.4220 7133653 266.6930 295.2134  1.99951045234536
MOLNIYA 1-62            
1 15214U 84089A   15115.36343581 -.00000056  00000-0 -71707-3 0  9996
2 15214  63.7887  26.7686 7289723 262.1825 282.9449  1.97955350192591
MOLNIYA 1-63            
1 15429U 84124A   15118.26871418 -.00001148  00000-0  00000+0 0  9997
2 15429  63.5491  85.7204 6853137 275.7458 323.9087  2.00584938222500
MOLNIYA 3-24            
1 15738U 85040A   15120.54283068  .00000141  00000-0 -74048-2 0  9998
2 15738  64.4272 138.9385 6340590 275.3081 320.2457  2.55629720237318
MOLNIYA 3-27            
1 16393U 85117A   15120.69890994 -.00000055  00000-0  10000-3 0  9992
2 16393  64.4715   8.7054 6873048 282.3288  13.8957  2.12398066218881
MOLNIYA 1-69            
1 17078U 86089A   15120.36857057  .00000182  00000-0  21733-2 0  9993
2 17078  63.7437 110.3965 6835201 278.5381  87.1278  2.00654052208567
MOLNIYA 3-31            
1 17328U 87008A   15120.31542751 -.00000238  00000-0 -45815-1 0  9990
2 17328  63.9458  58.2514 6991213 275.7045 344.1629  2.00664927203633
MOLNIYA 1-71            
1 18946U 88017A   15119.89708984  .00000000  00000-0  10000-3 0  9996
2 18946  63.8220  72.9131 7026383 273.0077  15.7177  2.00602380198837
MOLNIYA 1-75            
1 19807U 89014A   15119.99386216  .00001109  00000-0  25715-2 0  9991
2 19807  63.5201 221.2637 6943834 282.7300  13.3077  2.00410311191842
MOLNIYA 1-80            
1 21118U 91012A   15120.43848699 -.00001321  00000-0  26841-5 0  9990
2 21118  62.6517 289.9565 7350495 288.5369   9.3006  2.05246895177543
MOLNIYA 3-40            
1 21196U 91022A   15115.61405460  .00001208  00000-0  45104-3 0  9990
2 21196  62.8871 273.8084 7304404 289.5520   9.3730  2.03004022176681
MOLNIYA 1-81            
1 21426U 91043A   15120.54535654 -.00000316  00000-0 -11897-1 0  9997
2 21426  63.2966 288.6242 7222249 283.8562  38.6913  2.00624464174890
MOLNIYA 3-41            
1 21706U 91065A   15120.54906856  .00000284  00000-0 -69341-2 0  9999
2 21706  63.7350 111.7701 6937635 280.0872 339.8111  2.04359721173703
MOLNIYA 3-42            
1 22178U 92067A   15118.74268063  .00000141  00000-0  44948-2 0  9993
2 22178  63.0546 198.3914 6995841 288.9840  62.8281  2.20434671167068
MOLNIYA 1-86            
1 22671U 93035A   15120.15100237  .00001637  00000-0  44781-3 0  9990
2 22671  62.9220 318.1930 4975141 322.3544 191.6658  5.61655826205704
MOLNIYA 1-87            
1 22949U 93079A   15119.30623860 -.00001492  00000-0  28219-3 0  9991
2 22949  61.6304  91.2815 7447971 274.3125 347.2632  2.00351508156493
MOLNIYA 1-88            
1 23420U 94081A   15117.69812557  .00000237  00000-0  37450-3 0  9995
2 23420  62.7617 140.3071 6358172 295.6241  13.2270  3.34489748159717
MOLNIYA 3-47            
1 23642U 95042A   15119.32569182 -.00000373  00000-0  38297-3 0  9996
2 23642  61.9928  67.4810 7476626 274.7807 346.6091  2.00674080144514
MOLNIYA 1-90            
1 24960U 97054A   15117.66595674  .00002453  00000-0  88379-3 0  9991
2 24960  61.9946  97.9144 7447773 274.4396  12.1771  2.04869666129442
MOLNIYA 1-91            
1 25485U 98054A   15117.99916535 -.00000469  00000-0  84768-3 0  9998
2 25485  61.9377 239.0780 7360750 262.2601 128.4637  2.00600732121459
MOLNIYA 3-50            
1 25847U 99036A   15119.72529669 -.00000301  00000-0 -13648-2 0  9996
2 25847  62.8884   8.6232 7386377 259.1811  17.6740  2.00591006115839
MOLNIYA 3-51            
1 26867U 01030A   15120.10724735  .00002914  00000-0  76345-3 0  9995
2 26867  62.4853 231.8059 7092338 260.9464  46.7144  2.51843257103018
MOLNIYA 1-93            
1 28163U 04005A   15119.77909830 -.00000076  00000-0  20482-3 0  9992
2 28163  63.8966  28.4061 7486316 243.8107  24.5619  2.00670557 82011
